[{"OBJECT_NAME":"OBJECT B","OBJECT_ID":"2023-189B","EPOCH":"2026-03-09T23:19:13.152000","MEAN_MOTION":15.72871024,"ECCENTRICITY":0.00049112,"INCLINATION":97.414,"RA_OF_ASC_NODE":101.6861,"ARG_OF_PERICENTER":172.6117,"MEAN_ANOMALY":187.522,"EPHEMERIS_TYPE":0,"CLASSIFICATION_TYPE":"U","NORAD_CAT_ID":58503,"ELEMENT_SET_NO":999,"REV_AT_EPOCH":12706,"BSTAR":0.00074828171,"MEAN_MOTION_DOT":0.00102221,"MEAN_MOTION_DDOT":0},{"OBJECT_NAME":"STARLINK-11733 [DTC]","OBJECT_ID":"2025-107J","EPOCH":"2026-03-09T18:49:56.157600","MEAN_MOTION":15.7086041,"ECCENTRICITY":1.084e-5,"INCLINATION":42.999,"RA_OF_ASC_NODE":97.6008,"ARG_OF_PERICENTER":58.976,"MEAN_ANOMALY":301.1118,"EPHEMERIS_TYPE":0,"CLASSIFICATION_TYPE":"U","NORAD_CAT_ID":64072,"ELEMENT_SET_NO":999,"REV_AT_EPOCH":4731,"BSTAR":0.0016876976,"MEAN_MOTION_DOT":0.00222194,"MEAN_MOTION_DDOT":0}]
